[{"OBJECT_NAME":"ICEYE-X30","OBJECT_ID":"2023-084R","EPOCH":"2026-03-09T21:18:40.033440","MEAN_MOTION":15.72701856,"ECCENTRICITY":0.00049319,"INCLINATION":97.5707,"RA_OF_ASC_NODE":220.1726,"ARG_OF_PERICENTER":282.9335,"MEAN_ANOMALY":77.1377,"EPHEMERIS_TYPE":0,"CLASSIFICATION_TYPE":"U","NORAD_CAT_ID":56947,"ELEMENT_SET_NO":999,"REV_AT_EPOCH":15325,"BSTAR":0.00083938221,"MEAN_MOTION_DOT":0.00114026,"MEAN_MOTION_DDOT":0},{"OBJECT_NAME":"STARLINK-11435 [DTC]","OBJECT_ID":"2025-024N","EPOCH":"2026-03-09T07:34:29.328672","MEAN_MOTION":15.70971153,"ECCENTRICITY":0.00012524,"INCLINATION":42.9992,"RA_OF_ASC_NODE":184.0769,"ARG_OF_PERICENTER":227.3644,"MEAN_ANOMALY":132.7118,"EPHEMERIS_TYPE":0,"CLASSIFICATION_TYPE":"U","NORAD_CAT_ID":62891,"ELEMENT_SET_NO":999,"REV_AT_EPOCH":6340,"BSTAR":0.0016946232,"MEAN_MOTION_DOT":0.00224193,"MEAN_MOTION_DDOT":0}]
